ZHOU ENLAI              
1 43156U 18008B   21152.84705469  .00001651  00000-0  99546-4 0  9990
2 43156  97.4066 218.1181 0015122  29.2177  82.0417 15.12024746185653
QUANTUTONG 1            
1 43158U 18008D   21152.84589618  .00001424  00000-0  87755-4 0  9995
2 43158  97.4025 216.7154 0014225  27.8147  63.1998 15.11455024185580
S-NET D                 
1 43186U 18014G   21152.51540485 -.00000283  00000-0 -19562-4 0  9991
2 43186  97.6791  60.3884 0011921 129.2432 230.9850 14.97058431181918
S-NET B                 
1 43187U 18014H   21152.64899623 -.00000293  00000-0 -20359-4 0  9994
2 43187  97.6788  60.4867 0011921 128.8209 231.4079 14.97057890181933
S-NET A                 
1 43188U 18014J   21152.64903513 -.00000287  00000-0 -19849-4 0  9994
2 43188  97.6792  60.5307 0011925 128.9013 231.3274 14.97056746181932
S-NET C                 
1 43189U 18014K   21152.18163977 -.00000267  00000-0 -18113-4 0  9997
2 43189  97.6788  60.0205 0011901 130.2280 229.9985 14.97056615180415
FENGMANIU-1 (FMN-1)     
1 43192U 18015A   21152.89158947  .00003210  00000-0  12021-3 0  9991
2 43192  97.4871 288.1843 0013038 300.0617 158.5049 15.27961734185217
SHAONIAN XING           
1 43199U 18015H   21152.84569943  .00002246  00000-0  86174-4 0  9994
2 43199  97.4647 285.3522 0014595 311.6433 151.4655 15.27472792185262
LUOJIA-1 01             
1 43485U 18048B   21152.81646800  .00000223  00000-0  39000-4 0  9992
2 43485  97.9606 234.7087 0011135 355.5957   4.5147 14.76849027161685
SURFSAT                 
1 43614U 18070B   21152.64622331  .00003992  00000-0  93371-4 0  9992
2 43614  93.0301 299.4067 0016590  69.8353 290.4686 15.42047068152233
CP7 (DAVE)              
1 43615U 18070C   21152.66057853  .00003691  00000-0  87147-4 0  9996
2 43615  93.0305 299.3704 0016780  69.7176 290.5881 15.41763438152220
ELFIN-B                 
1 43616U 18070D   21152.38877271  .00006301  00000-0  13514-3 0  9997
2 43616  93.0261 299.4279 0016453  69.0594 291.2422 15.44604437152296
ELFIN-A                 
1 43617U 18070E   21152.67709911  .00006293  00000-0  13297-3 0  9993
2 43617  93.0308 300.3797 0015676  65.4216 294.8673 15.45058424152357
STARS-ME                
1 43640U 98067PQ  21152.48555260  .00214848  30777-4  38514-3 0  9992
2 43640  51.6224 311.7252 0007727 289.7671  70.2505 16.01195717151759
CZ-4B R/B               
1 43656U 18081B   21152.52901543  .00000009  00000-0  20005-4 0  9992
2 43656  99.3635 251.5377 0209046 158.5844 202.4245 14.30469164135890
CUBEBEL-1 (BSUSAT-1)    
1 43666U 18083E   21152.85055868  .00001429  00000-0  70820-4 0  9998
2 43666  97.4552 181.4150 0013252 218.3709 315.9905 15.19308018143648
CHANGSHAGAOXIN (TY 4-01)
1 43669U 18083H   21152.82775656  .00001162  00000-0  60249-4 0  9990
2 43669  97.4461 178.5156 0009591 210.4178 324.2490 15.18094000143517
TEN-KOH                 
1 43677U 18084G   21152.61169006  .00000238  00000-0  30191-4 0  9999
2 43677  97.9182 275.6102 0017484  87.5398 272.7821 14.90464539140944
DIWATA-2B               
1 43678U 18084H   21152.89181549 -.00000236  00000-0 -17664-4 0  9996
2 43678  97.9214 278.0922 0011375  99.9241 260.3273 14.91746450141115
STARS-AO                
1 43679U 18084J   21152.60838413  .00000206  00000-0  25758-4 0  9993
2 43679  97.9260 278.9965 0010601 108.0401 252.1974 14.92507476141126
AUTCUBE 2               
1 43681U 18084K   21152.63369433  .00000395  00000-0  44571-4 0  9993
2 43681  97.9224 278.1477 0010940 102.5733 257.6710 14.92082494141050
IRVINE01                
1 43693U 18088D   21152.87716554  .00003746  00000-0  14563-3 0  9996
2 43693  85.0356 205.3089 0019157  84.8390 275.5039 15.25502006142066
ES'HAIL 2               
1 43700U 18090A   21152.84518562  .00000135  00000-0  00000-0 0  9991
2 43700   0.0122 298.8501 0001389 155.4023 126.3618  1.00274234  9217
FACSAT-1                
1 43721U 18096C   21152.82805681  .00002519  00000-0  92368-4 0  9999
2 43721  97.3846 230.0855 0015768 332.1001 167.9946 15.28812575139735
CENTAURI-2              
1 43722U 18096D   21152.78429095  .00002666  00000-0  94401-4 0  9999
2 43722  97.3873 230.8077 0015399 330.6483  29.3891 15.29918121139765
3CAT-1                  
1 43728U 18096K   21152.80823398  .00003116  00000-0  10887-3 0  9998
2 43728  97.3880 231.3915 0015364 335.1436 165.3575 15.30223462139798
INNOSAT-2               
1 43738U 18096V   21152.81853176  .00004427  00000-0  13883-3 0  9992
2 43738  97.3925 234.5234 0020188 330.9459 169.5206 15.33397504140001
REAKTOR HELLO WORLD     
1 43743U 18096AA  21152.80588766  .00001785  00000-0  66336-4 0  9993
2 43743  97.3861 230.4366 0016378 337.3854  22.6662 15.28754006139745
ELYSIUM STAR 2 & LFF    
1 43760U 18099C   21152.87902963  .00001445  00000-0  13265-3 0  9996
2 43760  97.6706 224.4784 0015522  99.7113 260.5863 14.96299543136184
2018-099D               
1 43761U 18099D   21152.68890233  .00000902  00000-0  86855-4 0  9995
2 43761  97.6655 223.6571 0016221 102.7564 257.5483 14.95302002136116
AISTECHSAT 2            
1 43768U 18099L   21152.90885867 -.00000075  00000-0 -17080-5 0  9992
2 43768  97.6625 222.7931 0012974 100.5351 259.7332 14.94900727135822
FOX-1CLIFF (AO-95)      
1 43770U 18099N   21152.45685197  .00000329  00000-0  34950-4 0  9993
2 43770  97.6651 222.9968 0015996 109.9353 250.3592 14.95312002136064
RANGE-A                 
1 43772U 18099Q   21152.22080242  .00000800  00000-0  77015-4 0  9993
2 43772  97.6741 223.7358 0015835  98.7577 261.5438 14.95613706136038
RANGE-B                 
1 43773U 18099R   21152.86268821  .00000531  00000-0  53371-4 0  9995
2 43773  97.6587 222.7327 0015093  97.0478 263.2460 14.95207920136110
2018-099T               
1 43775U 18099T   21152.46307423  .00000371  00000-0  38746-4 0  9996
2 43775  97.6655 223.2122 0016163 101.8921 258.4113 14.95278232136062
MOVE-II                 
1 43780U 18099Y   21152.42477250  .00000715  00000-0  68883-4 0  9991
2 43780  97.6675 223.4809 0015109 106.6339 253.6543 14.95914766136073
SNUSAT-2                
1 43782U 18099AA  21152.89357773  .00000339  00000-0  35657-4 0  9996
2 43782  97.6654 223.7597 0014391  95.4215 264.8648 14.95559224136141
SNUGLITE                
1 43784U 18099AC  21152.43497173 -.00000001  00000-0  50324-5 0  9993
2 43784  97.6618 223.0419 0016575 103.8964 256.4102 14.95682044136093
ITASAT 1                
1 43786U 18099AE  21152.78063240 -.00000005  00000-0  46725-5 0  9991
2 43786  97.6672 223.9807 0016620 102.4485 257.8597 14.95609283136142
KAZSCISAT-1             
1 43787U 18099AF  21152.90882109  .00000217  00000-0  24305-4 0  9992
2 43787  97.6585 223.2976 0015570  99.3376 260.9606 14.96090092136185
EAGLET-I                
1 43790U 18099AJ  21152.48434569  .00000654  00000-0  63366-4 0  9997
2 43790  97.6665 224.0962 0015104 106.6210 253.6671 14.95961724135823
ESEO                    
1 43792U 18099AL  21152.80129237  .00000426  00000-0  43284-4 0  9992
2 43792  97.6626 224.0112 0014865 103.3400 256.9480 14.95735770135922
CSIM-FD                 
1 43793U 18099AM  21152.43390624  .00000353  00000-0  35978-4 0  9992
2 43793  97.6661 224.0119 0014643 100.6712 259.6160 14.96575564135872
ASTROCAST 0.1           
1 43798U 18099AS  21152.43649051  .00000158  00000-0  19115-4 0  9996
2 43798  97.6671 224.2387 0013957  88.3115 271.9705 14.96181815136126
JY1SAT (JO-97)          
1 43803U 18099AX  21152.61329663  .00000886  00000-0  84187-4 0  9996
2 43803  97.6636 223.5704 0016811 103.0018 257.3081 14.95854889136120
SUOMI-100               
1 43804U 18099AY  21152.88605992  .00000764  00000-0  73400-4 0  9999
2 43804  97.6633 223.8053 0016879 102.0921 258.2193 14.95828028136179
AL-FARABI 2             
1 43805U 18099AZ  21152.75562594  .00001262  00000-0  11714-3 0  9999
2 43805  97.6635 223.8902 0017148 102.7116 257.6019 14.96046698136163
CENTAURI-1              
1 43809U 18099BD  21152.83086271  .00000126  00000-0  16382-4 0  9990
2 43809  97.6646 224.0524 0016776 102.9554 257.3542 14.95830882135865
CHOMPTT                 
1 43855U 18104G   21152.69479451  .00001386  00000-0  55443-4 0  9998
2 43855  85.0352 303.9497 0016278 197.4058 162.6629 15.23943892136696
DAVINCI                 
1 43857U 18104J   21152.64107055  .00003408  00000-0  13339-3 0  9997
2 43857  85.0305 303.8032 0013157 223.2961 136.7250 15.25344422136670
UWE-4                   
1 43880U 18111E   21152.54066370  .00000411  00000-0  40881-4 0  9998
2 43880  97.6875  60.5443 0012835 151.6930 208.4992 14.96854719132704
ZACUBE-2                
1 43907U 18111AH  21152.90463257  .00000755  00000-0  32719-4 0  9995
2 43907  97.2339  47.5709 0021006 353.4654  69.2360 15.25180437135268
MICRODRAGON             
1 43935U 19003D   21152.69064720  .00000752  00000-0  34406-4 0  9997
2 43935  97.1819 194.8026 0019696  83.1087 277.2390 15.23254263131704
AOBA VELOX-IV           
1 43940U 19003J   21152.84320491  .00003532  00000-0  13419-3 0  9999
2 43940  97.1786 197.5191 0024176  67.1706 293.2084 15.27169991131924
M6P                     
1 44109U 19018AF  21152.62355520  .00002193  00000-0  68129-4 0  9991
2 44109  97.4263 229.7053 0057028  50.8281 309.8007 15.32897401121039
SPOOQY-1                
1 44332U 98067QH  21152.70281473  .00038562  00000-0  25623-3 0  9994
2 44332  51.6343   7.0573 0003896 213.1596 146.9159 15.75044985111618
FORMOSAT 7-4            
1 44350U 19036M   21152.57920711  .00000813  00000-0  30157-4 0  9990
2 44350  23.9990 118.9252 0005854 218.4969 141.5117 15.07780532105924
PAINANI 1               
1 44365U 19037A   21152.83938233  .00003332  00000-0  86918-4 0  9999
2 44365  45.0062 344.8001 0004063 128.2255 231.9000 15.41130368108364
ACRUX 1                 
1 44369U 19037E   21152.76988656  .00007531  00000-0  15184-3 0  9990
2 44369  45.0065 323.3362 0008443 106.0612 254.1209 15.47174067108560
